CTC2_L_00630001-01
1 10000U 23972ML  26075.70050926  .00000000  00000+0  00000-0 0  9992
2 10000  50.0000   0.0000 0000000   0.0000   0.0000  4.33913782    19
CTC2_L_00630001-02
1 10001U 26917XJ  26075.70050926  .00000000  00000+0  00000-0 0  9995
2 10001  50.0000   0.0000 0000000   0.0000  36.0000  4.33913782    19
CTC2_L_00630001-03
1 10002U 24930IH  26075.70050926  .00000000  00000+0  00000-0 0  9999
2 10002  50.0000   0.0000 0000000   0.0000  72.0000  4.33913782    10
CTC2_L_00630001-04
1 10003U 25931QN  26075.70050926  .00000000  00000+0  00000-0 0  9992
2 10003  50.0000   0.0000 0000000   0.0000 108.0000  4.33913782    11
CTC2_L_00630001-05
1 10004U 24960QJ  26075.70050926  .00000000  00000+0  00000-0 0  9994
2 10004  50.0000   0.0000 0000000   0.0000 144.0000  4.33913782    12
CTC2_L_00630001-06
1 10005U 25105VU  26075.70050926  .00000000  00000+0  00000-0 0  9997
2 10005  50.0000   0.0000 0000000   0.0000 180.0000  4.33913782    13
CTC2_L_00630001-07
1 10006U 26417GZ  26075.70050926  .00000000  00000+0  00000-0 0  9995
2 10006  50.0000   0.0000 0000000   0.0000 216.0000  4.33913782    14
CTC2_L_00630001-08
1 10007U 22415FN  26075.70050926  .00000000  00000+0  00000-0 0  9990
2 10007  50.0000   0.0000 0000000   0.0000 252.0000  4.33913782    15
CTC2_L_00630001-09
1 10008U 23146NB  26075.70050926  .00000000  00000+0  00000-0 0  9993
2 10008  50.0000   0.0000 0000000   0.0000 288.0000  4.33913782    15
CTC2_L_00630001-10
1 10009U 26833VW  26075.70050926  .00000000  00000+0  00000-0 0  9990
2 10009  50.0000   0.0000 0000000   0.0000 324.0000  4.33913782    17
CTC2_L_00630002-01
1 10010U 25731AU  26075.70050926  .00000000  00000+0  00000-0 0  9998
2 10010  50.0000  30.0000 0000000   0.0000  12.0000  4.33913782    16
CTC2_L_00630002-02
1 10011U 22895LI  26075.70050926  .00000000  00000+0  00000-0 0  9997
2 10011  50.0000  30.0000 0000000   0.0000  48.0000  4.33913782    16
CTC2_L_00630002-03
1 10012U 23619FA  26075.70050926  .00000000  00000+0  00000-0 0  9993
2 10012  50.0000  30.0000 0000000   0.0000  84.0000  4.33913782    17
CTC2_L_00630002-04
1 10013U 23917XI  26075.70050926  .00000000  00000+0  00000-0 0  9995
2 10013  50.0000  30.0000 0000000   0.0000 120.0000  4.33913782    19
CTC2_L_00630002-05
1 10014U 26140TY  26075.70050926  .00000000  00000+0  00000-0 0  9997
2 10014  50.0000  30.0000 0000000   0.0000 156.0000  4.33913782    19
CTC2_L_00630002-06
1 10015U 24109XE  26075.70050926  .00000000  00000+0  00000-0 0  9991
2 10015  50.0000  30.0000 0000000   0.0000 192.0000  4.33913782    10
CTC2_L_00630002-07
1 10016U 25505FW  26075.70050926  .00000000  00000+0  00000-0 0  9993
2 10016  50.0000  30.0000 0000000   0.0000 228.0000  4.33913782    11
CTC2_L_00630002-08
1 10017U 22994LI  26075.70050926  .00000000  00000+0  00000-0 0  9993
2 10017  50.0000  30.0000 0000000   0.0000 264.0000  4.33913782    12
CTC2_L_00630002-09
1 10018U 23129RP  26075.70050926  .00000000  00000+0  00000-0 0  9995
2 10018  50.0000  30.0000 0000000   0.0000 300.0000  4.33913782    14
CTC2_L_00630002-10
1 10019U 22518XV  26075.70050926  .00000000  00000+0  00000-0 0  9997
2 10019  50.0000  30.0000 0000000   0.0000 336.0000  4.33913782    14
CTC2_L_00630003-01
1 10020U 22150NX  26075.70050926  .00000000  00000+0  00000-0 0  9991
2 10020  50.0000  60.0000 0000000   0.0000  24.0000  4.33913782    13
CTC2_L_00630003-02
1 10021U 22401IS  26075.70050926  .00000000  00000+0  00000-0 0  9991
2 10021  50.0000  60.0000 0000000   0.0000  60.0000  4.33913782    14
CTC2_L_00630003-03
1 10022U 24522ZP  26075.70050926  .00000000  00000+0  00000-0 0  9998
2 10022  50.0000  60.0000 0000000   0.0000  96.0000  4.33913782    14
CTC2_L_00630003-04
1 10023U 26830XD  26075.70050926  .00000000  00000+0  00000-0 0  9993
2 10023  50.0000  60.0000 0000000   0.0000 132.0000  4.33913782    16
CTC2_L_00630003-05
1 10024U 26658IR  26075.70050926  .00000000  00000+0  00000-0 0  9992
2 10024  50.0000  60.0000 0000000   0.0000 168.0000  4.33913782    16
CTC2_L_00630003-06
1 10025U 22109CH  26075.70050926  .00000000  00000+0  00000-0 0  9990
2 10025  50.0000  60.0000 0000000   0.0000 204.0000  4.33913782    18
CTC2_L_00630003-07
1 10026U 24972PE  26075.70050926  .00000000  00000+0  00000-0 0  9991
2 10026  50.0000  60.0000 0000000   0.0000 240.0000  4.33913782    19
CTC2_L_00630003-08
1 10027U 26096KU  26075.70050926  .00000000  00000+0  00000-0 0  9991
2 10027  50.0000  60.0000 0000000   0.0000 276.0000  4.33913782    19
CTC2_L_00630003-09
1 10028U 22543BQ  26075.70050926  .00000000  00000+0  00000-0 0  9995
2 10028  50.0000  60.0000 0000000   0.0000 312.0000  4.33913782    11
CTC2_L_00630003-10
1 10029U 23628TX  26075.70050926  .00000000  00000+0  00000-0 0  9991
2 10029  50.0000  60.0000 0000000   0.0000 348.0000  4.33913782    11
CTC2_L_00630004-01
1 10030U 23357OC  26075.70050926  .00000000  00000+0  00000-0 0  9992
2 10030  50.0000  90.0000 0000000   0.0000  36.0000  4.33913782    10
CTC2_L_00630004-02
1 10031U 23457VG  26075.70050926  .00000000  00000+0  00000-0 0  9994
2 10031  50.0000  90.0000 0000000   0.0000  72.0000  4.33913782    11
CTC2_L_00630004-03
1 10032U 23951UP  26075.70050926  .00000000  00000+0  00000-0 0  9994
2 10032  50.0000  90.0000 0000000   0.0000 108.0000  4.33913782    12
CTC2_L_00630004-04
1 10033U 23670JD  26075.70050926  .00000000  00000+0  00000-0 0  9993
2 10033  50.0000  90.0000 0000000   0.0000 144.0000  4.33913782    13
CTC2_L_00630004-05
1 10034U 26114B   26075.70050926  .00000000  00000+0  00000-0 0  9990
2 10034  50.0000  90.0000 0000000   0.0000 180.0000  4.33913782    14
CTC2_L_00630004-06
1 10035U 22741RK  26075.70050926  .00000000  00000+0  00000-0 0  9993
2 10035  50.0000  90.0000 0000000   0.0000 216.0000  4.33913782    15
CTC2_L_00630004-07
1 10036U 26715MJ  26075.70050926  .00000000  00000+0  00000-0 0  9999
2 10036  50.0000  90.0000 0000000   0.0000 252.0000  4.33913782    16
CTC2_L_00630004-08
1 10037U 23861QX  26075.70050926  .00000000  00000+0  00000-0 0  9999
2 10037  50.0000  90.0000 0000000   0.0000 288.0000  4.33913782    16
CTC2_L_00630004-09
1 10038U 22095YE  26075.70050926  .00000000  00000+0  00000-0 0  9998
2 10038  50.0000  90.0000 0000000   0.0000 324.0000  4.33913782    18
CTC2_L_00630004-10
1 10039U 26206CH  26075.70050926  .00000000  00000+0  00000-0 0  9997
2 10039  50.0000  90.0000 0000000   0.0000   0.0000  4.33913782    10
CTC2_L_00630005-01
1 10040U 25019ZG  26075.70050926  .00000000  00000+0  00000-0 0  9990
2 10040  50.0000 120.0000 0000000   0.0000  48.0000  4.33913782    18
CTC2_L_00630005-02
1 10041U 24630GJ  26075.70050926  .00000000  00000+0  00000-0 0  9999
2 10041  50.0000 120.0000 0000000   0.0000  84.0000  4.33913782    19
CTC2_L_00630005-03
1 10042U 24421ZX  26075.70050926  .00000000  00000+0  00000-0 0  9998
2 10042  50.0000 120.0000 0000000   0.0000 120.0000  4.33913782    11
CTC2_L_00630005-04
1 10043U 22230TG  26075.70050926  .00000000  00000+0  00000-0 0  9995
2 10043  50.0000 120.0000 0000000   0.0000 156.0000  4.33913782    11
CTC2_L_00630005-05
1 10044U 25997HW  26075.70050926  .00000000  00000+0  00000-0 0  9999
2 10044  50.0000 120.0000 0000000   0.0000 192.0000  4.33913782    12
CTC2_L_00630005-06
1 10045U 22744PT  26075.70050926  .00000000  00000+0  00000-0 0  9997
2 10045  50.0000 120.0000 0000000   0.0000 228.0000  4.33913782    13
CTC2_L_00630005-07
1 10046U 24601PJ  26075.70050926  .00000000  00000+0  00000-0 0  9992
2 10046  50.0000 120.0000 0000000   0.0000 264.0000  4.33913782    14
CTC2_L_00630005-08
1 10047U 24162II  26075.70050926  .00000000  00000+0  00000-0 0  9995
2 10047  50.0000 120.0000 0000000   0.0000 300.0000  4.33913782    16
CTC2_L_00630005-09
1 10048U 23885QH  26075.70050926  .00000000  00000+0  00000-0 0  9997
2 10048  50.0000 120.0000 0000000   0.0000 336.0000  4.33913782    16
CTC2_L_00630005-10
1 10049U 25888KZ  26075.70050926  .00000000  00000+0  00000-0 0  9993
2 10049  50.0000 120.0000 0000000   0.0000  12.0000  4.33913782    18
CTC2_L_00630006-01
1 10050U 25115QN  26075.70050926  .00000000  00000+0  00000-0 0  9998
2 10050  50.0000 150.0000 0000000   0.0000  60.0000  4.33913782    16
CTC2_L_00630006-02
1 10051U 22018QU  26075.70050926  .00000000  00000+0  00000-0 0  9998
2 10051  50.0000 150.0000 0000000   0.0000  96.0000  4.33913782    16
CTC2_L_00630006-03
1 10052U 22308OB  26075.70050926  .00000000  00000+0  00000-0 0  9991
2 10052  50.0000 150.0000 0000000   0.0000 132.0000  4.33913782    18
CTC2_L_00630006-04
1 10053U 23887DW  26075.70050926  .00000000  00000+0  00000-0 0  9995
2 10053  50.0000 150.0000 0000000   0.0000 168.0000  4.33913782    18
CTC2_L_00630006-05
1 10054U 25776ZE  26075.70050926  .00000000  00000+0  00000-0 0  9995
2 10054  50.0000 150.0000 0000000   0.0000 204.0000  4.33913782    10
CTC2_L_00630006-06
1 10055U 25884LF  26075.70050926  .00000000  00000+0  00000-0 0  9996
2 10055  50.0000 150.0000 0000000   0.0000 240.0000  4.33913782    11
CTC2_L_00630006-07
1 10056U 26720LJ  26075.70050926  .00000000  00000+0  00000-0 0  9997
2 10056  50.0000 150.0000 0000000   0.0000 276.0000  4.33913782    11
CTC2_L_00630006-08
1 10057U 24126GW  26075.70050926  .00000000  00000+0  00000-0 0  9996
2 10057  50.0000 150.0000 0000000   0.0000 312.0000  4.33913782    13
CTC2_L_00630006-09
1 10058U 23540MZ  26075.70050926  .00000000  00000+0  00000-0 0  9996
2 10058  50.0000 150.0000 0000000   0.0000 348.0000  4.33913782    13
CTC2_L_00630006-10
1 10059U 24168KK  26075.70050926  .00000000  00000+0  00000-0 0  9994
2 10059  50.0000 150.0000 0000000   0.0000  24.0000  4.33913782    15
CTC2_L_00630007-01
1 10060U 25137JC  26075.70050926  .00000000  00000+0  00000-0 0  9993
2 10060  50.0000 180.0000 0000000   0.0000  72.0000  4.33913782    13
CTC2_L_00630007-02
1 10061U 25839VY  26075.70050926  .00000000  00000+0  00000-0 0  9993
2 10061  50.0000 180.0000 0000000   0.0000 108.0000  4.33913782    14
